NAVSTAR 48 (USA 151)    
1 26407U 00040A   26132.34020456  .00000015  00000+0  00000+0 0  9995
2 26407  54.8576 216.5861 0121427 302.3489  18.8092  2.00557378189228
NAVSTAR 51 (USA 166)    
1 27663U 03005A   26131.21267405  .00000007  00000+0  00000+0 0  9997
2 27663  54.8889 216.4379 0148046  53.0030 309.5006  2.00562542170573
NAVSTAR 54 (USA 177)    
1 28190U 04009A   26130.98517067 -.00000028  00000+0  00000+0 0  9997
2 28190  54.8619 277.1896 0114396 171.4377 180.8159  2.00555923162191
NAVSTAR 56 (USA 180)    
1 28474U 04045A   26132.15183638 -.00000047  00000+0  00000+0 0  9997
2 28474  55.1571 326.3474 0169923 315.4530 224.2473  2.00554244157701
NAVSTAR 57 (USA 183)    
1 28874U 05038A   26132.42234868 -.00000032  00000+0  00000+0 0  9990
2 28874  54.9086 274.6202 0127715 295.9400  41.1464  2.00568120151111
NAVSTAR 58 (USA 190)    
1 29486U 06042A   26131.11793913  .00000102  00000+0  00000+0 0  9999
2 29486  54.7051 152.8106 0106142  53.6775 319.4217  2.00571966143655
NAVSTAR 59 (USA 192)    
1 29601U 06052A   26132.51960272  .00000019  00000+0  00000+0 0  9995
2 29601  54.9400 215.4201 0085937  90.4951 270.5391  2.00556149142698
NAVSTAR 60 (USA 196)    
1 32260U 07047A   26132.32583779  .00000011  00000+0  00000+0 0  9999
2 32260  54.0697  81.5432 0165246  86.7265 275.1401  2.00557039136097
NAVSTAR 61 (USA 199)    
1 32384U 07062A   26131.14064606 -.00000028  00000+0  00000+0 0  9994
2 32384  55.0627 275.6413 0034959 163.2299 188.0453  2.00557804134768
NAVSTAR 62 (USA 201)    
1 32711U 08012A   26132.24018751  .00000112  00000+0  00000+0 0  9999
2 32711  54.4913 151.3609 0210313 247.3499 110.4697  2.00571463133031
NAVSTAR 64 (USA 206)    
1 35752U 09043A   26132.37835331 -.00000073  00000+0  00000+0 0  9994
2 35752  56.1887  28.8585 0053299  81.8321  30.2600  2.00556186122645
NAVSTAR 65 (USA 213)    
1 36585U 10022A   26132.56484807  .00000028  00000+0  00000+0 0  9996
2 36585  54.2742 209.9972 0126469  66.1094 298.1774  2.00560642116882
NAVSTAR 67 (USA 239)    
1 38833U 12053A   26132.41947646  .00000112  00000+0  00000+0 0  9993
2 38833  53.5786 145.0646 0178553  65.3334 296.5679  2.00566903 98721
NAVSTAR 68 (USA 242)    
1 39166U 13023A   26132.28545703 -.00000032  00000+0  00000+0 0  9996
2 39166  54.5335 270.4356 0141833  50.8211 310.4083  2.00563658 95161
NAVSTAR 69 (USA 248)    
1 39533U 14008A   26132.28658900  .00000110  00000+0  00000+0 0  9998
2 39533  53.6479 150.7840 0084051 230.5543 128.7567  2.00557497 88960
NAVSTAR 70 (USA 251)    
1 39741U 14026A   26132.06352961 -.00000048  00000+0  00000+0 0  9994
2 39741  56.5151 332.9240 0038649 326.8516  32.9397  2.00563664 87812
NAVSTAR 71 (USA 256)    
1 40105U 14045A   26132.15457572  .00000035  00000+0  00000+0 0  9990
2 40105  55.3304  89.8998 0032025 118.8106 241.4921  2.00555998 85357
NAVSTAR 72 (USA 258)    
1 40294U 14068A   26132.02736293 -.00000070  00000+0  00000+0 0  9990
2 40294  56.9638  32.3482 0065949  69.3361 291.3972  2.00573983 84485
NAVSTAR 73 (USA 260)    
1 40534U 15013A   26131.66445510  .00000026  00000+0  00000+0 0  9996
2 40534  53.1716 205.6882 0108952  40.0032 320.8562  2.00553512 81093
NAVSTAR 74 (USA 262)    
1 40730U 15033A   26131.82366543 -.00000031  00000+0  00000+0 0  9999
2 40730  54.0122 268.5852 0115011  30.0367 330.5973  2.00558108 79267
NAVSTAR 75 (USA 265)    
1 41019U 15062A   26132.37965425 -.00000070  00000+0  00000+0 0  9990
2 41019  56.9364  32.1909 0111324 231.3912 127.6362  2.00566974 77119
NAVSTAR 76 (USA 266)    
1 41328U 16007A   26131.96973483  .00000038  00000+0  00000+0 0  9993
2 41328  55.5025  90.8947 0096122 247.2384 111.7260  2.00553409 75119
NAVSTAR 77 (USA 289)    
1 43873U 18109A   26132.36545784  .00000043  00000+0  00000+0 0  9995
2 43873  55.6608  93.5997 0038048 198.7324 340.2832  2.00560026 54356
NAVSTAR 78 (USA 293)    
1 44506U 19056A   26130.25825404 -.00000053  00000+0  00000+0 0  9999
2 44506  55.6545 332.6508 0060147 197.3681 162.7587  2.00569435 49318
NAVSTAR 79 (USA 304)    
1 45854U 20041A   26131.60465042 -.00000072  00000+0  00000+0 0  9991
2 45854  56.6469  30.3638 0062614 204.8525 347.3313  2.00559506 43308
NAVSTAR 80 (USA 309)    
1 46826U 20078A   26129.38239204  .00000003  00000+0  00000+0 0  9995
2 46826  53.9858 212.3527 0071729 206.0993 156.6530  2.00564990 40738
NAVSTAR 81 (USA 319)    
1 48859U 21054A   26129.62249818 -.00000058  00000+0  00000+0 0  9998
2 48859  55.1919 334.0106 0024309 229.3277 132.5852  2.00571662 35983
NAVSTAR 82 (USA 343)    
1 55268U 23009A   26132.11872975  .00000113  00000+0  00000+0 0  9997
2 55268  55.1169 149.9367 0005950 314.6513  87.5429  2.00573989 24527
NAVSTAR 83 (USA 440)    
1 62339U 24242A   26132.18781948 -.00000054  00000+0  00000+0 0  9995
2 62339  54.8657 335.6414 0017084   3.1785 171.5342  2.00570893 10536
NAVSTAR 84 (USA 545)    
1 64202U 25116A   26120.52613794 -.00000106  00000+0  00000+0 0  9993
2 64202  55.2044  33.0485 0009186 336.4638 239.4024  2.00549603  6915
NAVSTAR 85 (USA 581)    
1 67588U 26017A   26131.30387553  .00000038  00000+0  00000+0 0  9996
2 67588  55.0654  90.2350 0023085 255.2038 104.5234  2.00571918430877
